[{"OBJECT_NAME":"TIANMU-1 19","OBJECT_ID":"2023-208A","EPOCH":"2026-03-09T22:13:36.801696","MEAN_MOTION":15.2984143,"ECCENTRICITY":0.00039292,"INCLINATION":97.4383,"RA_OF_ASC_NODE":184.9132,"ARG_OF_PERICENTER":316.2611,"MEAN_ANOMALY":43.8317,"EPHEMERIS_TYPE":0,"CLASSIFICATION_TYPE":"U","NORAD_CAT_ID":58660,"ELEMENT_SET_NO":999,"REV_AT_EPOCH":12214,"BSTAR":0.00040995676,"MEAN_MOTION_DOT":0.00011779,"MEAN_MOTION_DDOT":0},{"OBJECT_NAME":"STARLINK-35324","OBJECT_ID":"2025-221R","EPOCH":"2026-03-09T11:12:23.129568","MEAN_MOTION":15.30196161,"ECCENTRICITY":0.00011692,"INCLINATION":53.159,"RA_OF_ASC_NODE":89.7805,"ARG_OF_PERICENTER":92.1419,"MEAN_ANOMALY":267.9715,"EPHEMERIS_TYPE":0,"CLASSIFICATION_TYPE":"U","NORAD_CAT_ID":65838,"ELEMENT_SET_NO":999,"REV_AT_EPOCH":2469,"BSTAR":0.0012222047,"MEAN_MOTION_DOT":0.0003601,"MEAN_MOTION_DDOT":0}]
